STARLINK-32728          
1 62948U 25029A   26068.70910743  .00022143  00000+0  75755-3 0  9993
2 62948  53.1601 230.0213 0000778  36.0125 324.0928 15.30198454 61394
TEVEL2-6                
1 63215U 25052F   26068.64958975  .00021046  00000+0  70909-3 0  9996
2 63215  97.4016 325.0381 0004769  95.6604 264.5181 15.30760889 54861
